STARLINK-31719          
1 59495U 24071M   26134.93194092  .00000236  00000+0  18118-4 0  9992
2 59495  43.0039 325.8931 0001567 264.8056  95.2617 15.27581199118338
STARLINK-31728          
1 59496U 24071N   26133.93058311  .00017526  00000+0  64480-3 0  9997
2 59496  43.0034 331.2713 0001630 264.3753  95.6913 15.27585078118189
STARLINK-31720          
1 59497U 24071P   26134.88326096 -.00000002  00000+0  94590-5 0  9990
2 59497  43.0000 326.3893 0000974 273.6884  86.3856 15.27581531118324
STARLINK-31731          
1 59498U 24071Q   26134.23438612  .00002770  00000+0  11010-3 0  9995
2 59498  43.0030 329.2505 0001630 289.8318  70.2358 15.27590947118231
STARLINK-31742          
1 59499U 24071R   26134.50492936 -.00003156  00000+0 -10518-3 0  9998
2 59499  43.0008 327.8397 0001235 268.2023  91.8687 15.27592340118272
STARLINK-31512          
1 59500U 24071S   26134.48429291  .00004663  00000+0  17897-3 0  9991
2 59500  43.0110 288.0305 0002458 290.9453  69.1135 15.27564905118725
STARLINK-31458          
1 59501U 24071T   26134.96776321  .00001079  00000+0  48712-4 0  9993
2 59501  43.0031 325.2954 0001164 273.2279  86.8440 15.27585298118346
STARLINK-31357          
1 59502U 24071U   26134.93970128 -.00009603  00000+0 -34054-3 0  9998
2 59502  43.0046 325.9557 0003382 270.8650  89.1814 15.27508494118332
STARLINK-31508          
1 59503U 24071V   26134.87811649  .00005450  00000+0  20740-3 0  9995
2 59503  42.9994 326.3465 0001527 273.1148  86.9529 15.27585047118329
STARLINK-31535          
1 59504U 24071W   26134.25798868  .00005261  00000+0  20071-3 0  9992
2 59504  43.0028 337.2142 0000822 261.1038  98.9720 15.27554566118143
STARLINK-31533          
1 59505U 24071X   26134.95121279  .00001196  00000+0  52977-4 0  9990
2 59505  43.0009 326.0346 0001331 276.1872  83.8828 15.27579777118337
STARLINK-31524          
1 59506U 24071Y   26134.86106927  .00000052  00000+0  11386-4 0  9993
2 59506  42.9986 319.1041 0000666 296.2828  63.7955 15.27575688118402
SUPERVIEW NEO-3 01      
1 59510U 24072A   26135.27849328  .00005348  00000+0  22046-3 0  9991
2 59510  97.4145 215.7384 0001582 156.0901 204.0410 15.24495741115695
STARLINK-31635          
1 59511U 24073A   26134.49225197  .00001080  00000+0  48762-4 0  9991
2 59511  43.0011 306.0323 0001202 264.4678  95.6037 15.27570644116246
STARLINK-31650          
1 59512U 24073B   26134.46284154 -.00000234  00000+0  10244-5 0  9993
2 59512  43.0037 306.6699 0001720 283.8580  76.2080 15.27577740116235
STARLINK-31658          
1 59513U 24073C   26134.75238608 -.00001212  00000+0 -34520-4 0  9999
2 59513  43.0037 264.6573 0001515 247.1865 112.8826 15.27572244116735
STARLINK-31669          
1 59515U 24073E   26134.50252791  .00000293  00000+0  20163-4 0  9997
2 59515  43.0020 306.1047 0001068 264.5718  95.5012 15.27581264116242
STARLINK-31671          
1 59516U 24073F   26134.86543711  .00002477  00000+0  99515-4 0  9995
2 59516  43.0015 304.5252 0001548 263.1806  96.8870 15.27582367116299
STARLINK-31674          
1 59517U 24073G   26134.51409845  .00000285  00000+0  19867-4 0  9994
2 59517  43.0033 306.1925 0001153 265.9152  94.1568 15.27578678116241
STARLINK-31679          
1 59519U 24073J   26134.44116730 -.00000143  00000+0  43404-5 0  9995
2 59519  43.0039 296.1147 0001616 260.2048  99.8621 15.27572618116351
STARLINK-31370          
1 59520U 24073K   26134.53594369  .00001041  00000+0  47353-4 0  9998
2 59520  43.0034 306.3563 0001733 272.7028  87.3625 15.27574788116244
STARLINK-31404          
1 59521U 24073L   26134.87314743  .00002675  00000+0  10670-3 0  9997
2 59521  43.0015 304.5830 0001888 279.1079  80.9559 15.27584158116291
STARLINK-31453          
1 59522U 24073M   26134.70362715  .00009143  00000+0  34130-3 0  9996
2 59522  42.9976 287.4288 0001200 260.2504  99.8212 15.27585931116479
STARLINK-31476          
1 59523U 24073N   26134.85902618  .00000782  00000+0  37931-4 0  9998
2 59523  43.0011 304.4772 0001064 258.2405 101.8328 15.27569656116293
STARLINK-31538          
1 59525U 24073Q   26134.50638255  .00000475  00000+0  26792-4 0  9997
2 59525  43.0015 306.1306 0001076 274.4934  85.5795 15.27576953116240
STARLINK-31564          
1 59526U 24073R   26134.95638243  .00007244  00000+0  27272-3 0  9998
2 59526  43.0012 303.4891 0000742 288.7977  71.2794 15.27550850116318
STARLINK-31452          
1 59527U 24073S   26134.80390699  .00000546  00000+0  29366-4 0  9998
2 59527  43.0007 304.9212 0001335 241.1360 118.9358 15.27578564116287
STARLINK-31513          
1 59529U 24073U   26133.95179101  .00002991  00000+0  11814-3 0  9992
2 59529  43.0019 306.2102 0001201 272.7292  87.3422 15.27585534116197
STARLINK-31392          
1 59530U 24073V   26134.52437650  .00000927  00000+0  43216-4 0  9993
2 59530  43.0036 306.2630 0001180 273.4910  86.5807 15.27568075116240
STARLINK-31619          
1 59531U 24073W   26134.51024364 -.00000095  00000+0  60756-5 0  9993
2 59531  43.0025 306.1603 0001245 273.3499  86.7210 15.27572240117364
