OBJECT_NAME,OBJECT_ID,EPOCH,MEAN_MOTION,ECCENTRICITY,INCLINATION,RA_OF_ASC_NODE,ARG_OF_PERICENTER,MEAN_ANOMALY,EPHEMERIS_TYPE,CLASSIFICATION_TYPE,NORAD_CAT_ID,ELEMENT_SET_NO,REV_AT_EPOCH,BSTAR,MEAN_MOTION_DOT,MEAN_MOTION_DDOT
STARLINK-31719,2024-071M,2026-05-14T22:21:59.695488,15.27581199,.00015676,43.0039,325.8931,264.8056,95.2617,0,U,59495,999,11833,.18118008E-4,.236E-5,0
STARLINK-31728,2024-071N,2026-05-13T22:20:02.380704,15.27585078,.000163,43.0034,331.2713,264.3753,95.6913,0,U,59496,999,11818,.6448E-3,.17526E-3,0
STARLINK-31720,2024-071P,2026-05-14T21:11:53.746944,15.27581531,.00009742,43.0000,326.3893,273.6884,86.3856,0,U,59497,999,11832,.9458988E-5,-.2E-7,0
STARLINK-31731,2024-071Q,2026-05-14T05:37:30.960768,15.27590947,.00016303,43.0030,329.2505,289.8318,70.2358,0,U,59498,999,11823,.11010059E-3,.277E-4,0
STARLINK-31742,2024-071R,2026-05-14T12:07:05.896704,15.27592340,.00012355,43.0008,327.8397,268.2023,91.8687,0,U,59499,999,11827,-.10517505E-3,-.3156E-4,0
STARLINK-31512,2024-071S,2026-05-14T11:37:22.907424,15.27564905,.00024588,43.0110,288.0305,290.9453,69.1135,0,U,59500,999,11872,.17896994E-3,.4663E-4,0
STARLINK-31458,2024-071T,2026-05-14T23:13:34.741344,15.27585298,.00011642,43.0031,325.2954,273.2279,86.8440,0,U,59501,999,11834,.48711881E-4,.1079E-4,0
STARLINK-31357,2024-071U,2026-05-14T22:33:10.190592,15.27508494,.00033827,43.0046,325.9557,270.8650,89.1814,0,U,59502,999,11833,-.34053994E-3,-.9603E-4,0
STARLINK-31508,2024-071V,2026-05-14T21:04:29.264736,15.27585047,.00015277,42.9994,326.3465,273.1148,86.9529,0,U,59503,999,11832,.20740071E-3,.545E-4,0
STARLINK-31535,2024-071W,2026-05-14T06:11:30.221952,15.27554566,.00008227,43.0028,337.2142,261.1038,98.9720,0,U,59504,999,11814,.20070723E-3,.5261E-4,0
STARLINK-31533,2024-071X,2026-05-14T22:49:44.785056,15.27579777,.00013316,43.0009,326.0346,276.1872,83.8828,0,U,59505,999,11833,.52977059E-4,.1196E-4,0
STARLINK-31524,2024-071Y,2026-05-14T20:39:56.384928,15.27575688,.00006667,42.9986,319.1041,296.2828,63.7955,0,U,59506,999,11840,.11386052E-4,.52E-6,0
SUPERVIEW NEO-3 01,2024-072A,2026-05-15T06:41:01.819392,15.24495741,.0001582,97.4145,215.7384,156.0901,204.0410,0,U,59510,999,11569,.22046455E-3,.5348E-4,0
STARLINK-31635,2024-073A,2026-05-14T11:48:50.570208,15.27570644,.00012025,43.0011,306.0323,264.4678,95.6037,0,U,59511,999,11624,.48761902E-4,.108E-4,0
STARLINK-31650,2024-073B,2026-05-14T11:06:29.509056,15.27577740,.00017202,43.0037,306.6699,283.8580,76.2080,0,U,59512,999,11623,.1024397E-5,-.234E-5,0
STARLINK-31658,2024-073C,2026-05-14T18:03:26.157312,15.27572244,.00015151,43.0037,264.6573,247.1865,112.8826,0,U,59513,999,11673,-.34519805E-4,-.1212E-4,0
STARLINK-31669,2024-073E,2026-05-14T12:03:38.411424,15.27581264,.00010687,43.0020,306.1047,264.5718,95.5012,0,U,59515,999,11624,.20163287E-4,.293E-5,0
STARLINK-31671,2024-073F,2026-05-14T20:46:13.766304,15.27582367,.00015489,43.0015,304.5252,263.1806,96.8870,0,U,59516,999,11629,.99514652E-4,.2477E-4,0
STARLINK-31674,2024-073G,2026-05-14T12:20:18.106080,15.27578678,.00011536,43.0033,306.1925,265.9152,94.1568,0,U,59517,999,11624,.19866798E-4,.285E-5,0
STARLINK-31679,2024-073J,2026-05-14T10:35:16.854720,15.27572618,.00016166,43.0039,296.1147,260.2048,99.8621,0,U,59519,999,11635,.4340401E-5,-.143E-5,0
STARLINK-31370,2024-073K,2026-05-14T12:51:45.534816,15.27574788,.00017335,43.0034,306.3563,272.7028,87.3625,0,U,59520,999,11624,.47353159E-4,.1041E-4,0
STARLINK-31404,2024-073L,2026-05-14T20:57:19.937952,15.27584158,.00018888,43.0015,304.5830,279.1079,80.9559,0,U,59521,999,11629,.10670022E-3,.2675E-4,0
STARLINK-31453,2024-073M,2026-05-14T16:53:13.385760,15.27585931,.00012007,42.9976,287.4288,260.2504,99.8212,0,U,59522,999,11647,.34129738E-3,.9143E-4,0
STARLINK-31476,2024-073N,2026-05-14T20:36:59.861952,15.27569656,.00010645,43.0011,304.4772,258.2405,101.8328,0,U,59523,999,11629,.37931162E-4,.782E-5,0
STARLINK-31538,2024-073Q,2026-05-14T12:09:11.452320,15.27576953,.00010766,43.0015,306.1306,274.4934,85.5795,0,U,59525,999,11624,.26792042E-4,.475E-5,0
STARLINK-31564,2024-073R,2026-05-14T22:57:11.441952,15.27550850,.00007424,43.0012,303.4891,288.7977,71.2794,0,U,59526,999,11631,.27272255E-3,.7244E-4,0
STARLINK-31452,2024-073S,2026-05-14T19:17:37.563936,15.27578564,.00013356,43.0007,304.9212,241.1360,118.9358,0,U,59527,999,11628,.29365858E-4,.546E-5,0
STARLINK-31513,2024-073U,2026-05-13T22:50:34.743264,15.27585534,.0001201,43.0019,306.2102,272.7292,87.3422,0,U,59529,999,11619,.1181371E-3,.2991E-4,0
STARLINK-31392,2024-073V,2026-05-14T12:35:06.129600,15.27568075,.00011806,43.0036,306.2630,273.4910,86.5807,0,U,59530,999,11624,.43215917E-4,.927E-5,0
STARLINK-31619,2024-073W,2026-05-14T12:14:45.050496,15.27572240,.00012458,43.0025,306.1603,273.3499,86.7210,0,U,59531,999,11736,.6075581E-5,-.95E-6,0
